NORAD_CAT_ID,OBJECT_NAME,OBJECT_TYPE,EPOCH,MEAN_MOTION,ECCENTRICITY,INCLINATION,RA_OF_ASC_NODE,ARG_OF_PERICENTER,MEAN_ANOMALY,BSTAR,MEAN_MOTION_DOT,MEAN_MOTION_DDOT,TLE_LINE0,TLE_LINE1,TLE_LINE2,SEMIMAJOR_AXIS,PERIOD,APOGEE,PERIGEE,DECAYED
52333.0,STARLINK-3847,PAYLOAD,2023-02-25 12:35:36,15.08840428,0.0001182,53.2168,143.8665,95.976,264.1367,0.0011626,0.00018263,0.0,0 STARLINK-3847,1 52333U 22045C   23056.52472976  .00018263  00000-0  11626-2 0  9995,2 52333  53.2168 143.8665 0001182  95.9760 264.1367 15.08840428 48331,6917.879,95.438,540.562,538.926,0.0
52333.0,STARLINK-3847,PAYLOAD,2023-02-25 22:07:55,15.08840173,7.96e-05,53.2172,142.0831,100.2293,259.8789,0.00089628,0.00014005,0.0,0 STARLINK-3847,1 52333U 22045C   23056.92216982  .00014005  00000-0  89628-3 0  9990,2 52333  53.2172 142.0831 0000796 100.2293 259.8789 15.08840173 48395,6917.88,95.438,540.296,539.194,0.0
52333.0,STARLINK-3847,PAYLOAD,2023-02-26 10:51:00,15.08869663,0.0001169,53.2169,139.7045,78.0454,282.0669,0.0020851,0.00033079,0.0,0 STARLINK-3847,1 52333U 22045C   23057.45208658  .00033079  00000-0  20851-2 0  9994,2 52333  53.2169 139.7045 0001169  78.0454 282.0669 15.08869663 48476,6917.79,95.436,540.463,538.846,0.0
52333.0,STARLINK-3847,PAYLOAD,2023-02-26 17:12:32,15.08889833,0.0001202,53.2168,138.5147,77.7306,282.3821,0.0022955,0.00036484,0.0,0 STARLINK-3847,1 52333U 22045C   23057.71703932  .00036484  00000-0  22955-2 0  9998,2 52333  53.2168 138.5147 0001202  77.7306 282.3821 15.08889833 48514,6917.728,95.434,540.425,538.762,0.0
52333.0,STARLINK-3847,PAYLOAD,2023-02-27 05:55:37,15.08840458,0.000147,53.2161,136.1383,92.1648,267.9512,0.00095045,0.00014871,0.0,0 STARLINK-3847,1 52333U 22045C   23058.24696729  .00014871  00000-0  95045-3 0  9999,2 52333  53.2161 136.1383 0001470  92.1648 267.9512 15.08840458 48594,6917.879,95.438,540.761,538.727,0.0
52333.0,STARLINK-3847,PAYLOAD,2023-02-27 15:27:56,15.08902398,0.0001099,53.2173,134.357,90.5589,269.553,0.0032132,0.0005131,0.0,0 STARLINK-3847,1 52333U 22045C   23058.64439901  .00051310  00000-0  32132-2 0  9996,2 52333  53.2173 134.3570 0001099  90.5589 269.5530 15.08902398 48655,6917.69,95.434,540.315,538.794,0.0
52333.0,STARLINK-3847,PAYLOAD,2023-02-28 04:11:02,15.08853097,0.0001455,53.2156,131.9736,85.3599,274.7559,0.0017416,0.00027548,0.0,0 STARLINK-3847,1 52333U 22045C   23059.17432906  .00027548  00000-0  17416-2 0  9997,2 52333  53.2156 131.9736 0001455  85.3599 274.7559 15.08853097 48731,6917.84,95.437,540.712,538.699,0.0
52333.0,STARLINK-3847,PAYLOAD,2023-02-28 12:07:57,15.08855403,0.0001267,53.216,130.4878,85.7236,274.39,0.001627,0.00025711,0.0,0 STARLINK-3847,1 52333U 22045C   23059.50552705  .00025711  00000-0  16270-2 0  9991,2 52333  53.2160 130.4878 0001267  85.7236 274.3900 15.08855403 48784,6917.833,95.437,540.575,538.822,0.0
52333.0,STARLINK-3847,PAYLOAD,2023-02-28 21:40:16,15.08808396,8.98e-05,53.216,128.7027,151.1851,208.9191,-0.0012019,-0.00019348,0.0,0 STARLINK-3847,1 52333U 22045C   23059.90297059 -.00019348  00000-0 -12019-2 0  9991,2 52333  53.2160 128.7027 0000898 151.1851 208.9191 15.08808396 48841,6917.977,95.44,540.463,539.221,0.0
52333.0,STARLINK-3847,PAYLOAD,2023-03-01 10:23:23,15.08804653,0.0001263,53.2158,126.3229,117.9206,242.1914,0.0017047,0.0002692,0.0,0 STARLINK-3847,1 52333U 22045C   23060.43290902  .00026920  00000-0  17047-2 0  9999,2 52333  53.2158 126.3229 0001263 117.9206 242.1914 15.08804653 48921,6917.988,95.44,540.727,538.98,0.0
52333.0,STARLINK-3847,PAYLOAD,2023-03-01 21:31:05,15.08834986,0.0001327,53.2155,124.2423,114.9508,245.1623,0.0022217,0.00035243,0.0,0 STARLINK-3847,1 52333U 22045C   23060.89659585  .00035243  00000-0  22217-2 0  9998,2 52333  53.2155 124.2423 0001327 114.9508 245.1623 15.08834986 48993,6917.896,95.438,540.679,538.843,0.0
52333.0,STARLINK-3847,PAYLOAD,2023-03-02 10:14:10,15.08874517,0.0001336,53.2158,121.8633,112.1899,247.9235,0.002206,0.00035029,0.0,0 STARLINK-3847,1 52333U 22045C   23061.42650941  .00035029  00000-0  22060-2 0  9993,2 52333  53.2158 121.8633 0001336 112.1899 247.9235 15.08874517 49078,6917.775,95.435,540.564,538.716,0.0
52333.0,STARLINK-3847,PAYLOAD,2023-03-03 08:29:33,15.08890354,0.0001435,53.2163,117.6997,111.1213,248.9933,0.0021734,0.00034519,0.0,0 STARLINK-3847,1 52333U 22045C   23062.35385640  .00034519  00000-0  21734-2 0  9997,2 52333  53.2163 117.6997 0001435 111.1213 248.9933 15.08890354 49218,6917.726,95.434,540.584,538.599,0.0
52333.0,STARLINK-3847,PAYLOAD,2023-03-03 13:15:42,15.08900156,0.0001078,53.2159,116.8098,97.2485,262.863,0.0021237,0.00033728,0.0,0 STARLINK-3847,1 52333U 22045C   23062.55257013  .00033728  00000-0  21237-2 0  9990,2 52333  53.2159 116.8098 0001078  97.2485 262.8630 15.08900156 49248,6917.697,95.434,540.307,538.816,0.0
52333.0,STARLINK-3847,PAYLOAD,2023-03-04 06:44:56,15.08857222,0.0001363,53.2163,113.5364,128.8537,231.2576,0.0011606,0.0001824,0.0,0 STARLINK-3847,1 52333U 22045C   23063.28120949  .00018240  00000-0  11606-2 0  9999,2 52333  53.2163 113.5364 0001363 128.8537 231.2576 15.08857222 49355,6917.828,95.436,540.636,538.75,0.0
52333.0,STARLINK-3847,PAYLOAD,2023-03-04 13:06:28,15.08864198,0.0001059,53.2168,112.3464,102.2157,257.8954,0.0011901,0.00018716,0.0,0 STARLINK-3847,1 52333U 22045C   23063.54616773  .00018716  00000-0  11901-2 0  9999,2 52333  53.2168 112.3464 0001059 102.2157 257.8954 15.08864198 49392,6917.806,95.436,540.404,538.939,0.0
52333.0,STARLINK-3847,PAYLOAD,2023-03-05 11:21:53,15.08839971,9.7e-05,53.2164,108.1841,104.0558,256.0542,0.00093777,0.00014668,0.0,0 STARLINK-3847,1 52333U 22045C   23064.47353832  .00014668  00000-0  93777-3 0  9990,2 52333  53.2164 108.1841 0000970 104.0558 256.0542 15.08839971 49537,6917.88,95.438,540.417,539.074,0.0
52333.0,STARLINK-3847,PAYLOAD,2023-03-05 19:18:49,15.08838382,0.0001052,53.2168,106.6976,97.6956,262.4155,0.0006738,0.00010451,0.0,0 STARLINK-3847,1 52333U 22045C   23064.80474048  .00010451  00000-0  67380-3 0  9997,2 52333  53.2168 106.6976 0001052  97.6956 262.4155 15.08838382 49585,6917.885,95.438,540.478,539.023,0.0
52333.0,STARLINK-3847,PAYLOAD,2023-03-06 08:01:54,15.08862635,0.0001069,53.2168,104.3177,86.7745,273.3369,0.0011254,0.00017679,0.0,0 STARLINK-3847,1 52333U 22045C   23065.33465531  .00017679  00000-0  11254-2 0  9990,2 52333  53.2168 104.3177 0001069  86.7745 273.3369 15.08862635 49661,6917.811,95.436,540.416,538.937,0.0
52333.0,STARLINK-3847,PAYLOAD,2023-03-06 19:09:36,15.0883184,0.000104,53.2164,102.2374,98.1033,262.0077,-0.00085887,-0.00013927,0.0,0 STARLINK-3847,1 52333U 22045C   23065.79833491 -.00013927  00000-0 -85887-3 0  9992,2 52333  53.2164 102.2374 0001040  98.1033 262.0077 15.08831840 49732,6917.905,95.438,540.49,539.051,0.0
52333.0,STARLINK-3847,PAYLOAD,2023-03-07 09:28:04,15.08841395,0.0001329,53.2159,99.5604,91.6571,268.4573,0.0024328,0.00038644,0.0,0 STARLINK-3847,1 52333U 22045C   23066.39450118  .00038644  00000-0  24328-2 0  9993,2 52333  53.2159  99.5604 0001329  91.6571 268.4573 15.08841395 49822,6917.876,95.437,540.661,538.822,0.0
52333.0,STARLINK-3847,PAYLOAD,2023-03-07 19:00:23,15.08841104,0.0001218,53.2168,97.7756,101.7317,258.3812,0.00093183,0.00014574,0.0,0 STARLINK-3847,1 52333U 22045C   23066.79194201  .00014574  00000-0  93183-3 0  9997,2 52333  53.2168  97.7756 0001218 101.7317 258.3812 15.08841104 49886,6917.877,95.437,540.585,538.899,0.0
52333.0,STARLINK-3847,PAYLOAD,2023-03-08 18:51:11,15.08838441,0.0001644,53.2156,93.3153,92.304,267.814,0.0005959,9.208e-05,0.0,0 STARLINK-3847,1 52333U 22045C   23067.78554512  .00009208  00000-0  59590-3 0  9994,2 52333  53.2156  93.3153 0001644  92.3040 267.8140 15.08838441 50035,6917.885,95.438,540.887,538.613,0.0
52333.0,STARLINK-3847,PAYLOAD,2023-03-09 18:41:58,15.08863173,0.0001715,53.2159,88.8549,91.6208,268.4981,0.0022701,0.00036049,0.0,0 STARLINK-3847,1 52333U 22045C   23068.77914587  .00036049  00000-0  22701-2 0  9992,2 52333  53.2159  88.8549 0001715  91.6208 268.4981 15.08863173 50189,6917.81,95.436,540.861,538.488,0.0
52333.0,STARLINK-3847,PAYLOAD,2023-03-10 01:03:30,15.0886045,0.0001797,53.2149,87.6649,94.7015,265.4182,0.0013313,0.00020975,0.0,0 STARLINK-3847,1 52333U 22045C   23069.04410461  .00020975  00000-0  13313-2 0  9995,2 52333  53.2149  87.6649 0001797  94.7015 265.4182 15.08860450 50226,6917.818,95.436,540.926,538.44,0.0
52333.0,STARLINK-3847,PAYLOAD,2023-03-10 18:32:45,15.08842682,0.0001897,53.2167,84.3928,86.8866,273.2344,0.00025365,3.751e-05,0.0,0 STARLINK-3847,1 52333U 22045C   23069.77274473  .00003751  00000-0  25365-3 0  9990,2 52333  53.2167  84.3928 0001897  86.8866 273.2344 15.08842682 50333,6917.872,95.437,541.05,538.425,0.0
52333.0,STARLINK-3847,PAYLOAD,2023-03-11 07:15:50,15.0883684,0.000163,53.2169,82.0142,89.2729,270.845,0.00012802,1.75e-05,0.0,0 STARLINK-3847,1 52333U 22045C   23070.30266601  .00001750  00000-0  12802-3 0  9994,2 52333  53.2169  82.0142 0001630  89.2729 270.8450 15.08836840 50417,6917.89,95.438,540.883,538.627,0.0
52333.0,STARLINK-3847,PAYLOAD,2023-03-11 12:01:59,15.08845617,0.0001549,53.2175,81.119,106.2819,253.8344,0.00035311,5.337e-05,0.0,0 STARLINK-3847,1 52333U 22045C   23070.50138343  .00005337  00000-0  35311-3 0  9992,2 52333  53.2175  81.1190 0001549 106.2819 253.8344 15.08845617 50444,6917.863,95.437,540.8,538.657,0.0
52333.0,STARLINK-3847,PAYLOAD,2023-03-12 11:52:46,15.08856988,0.0001659,53.2172,76.6598,108.6868,251.4304,0.00096449,0.00015102,0.0,0 STARLINK-3847,1 52333U 22045C   23071.49498514  .00015102  00000-0  96449-3 0  9990,2 52333  53.2172  76.6598 0001659 108.6868 251.4304 15.08856988 50593,6917.828,95.436,540.841,538.546,0.0
52333.0,STARLINK-3847,PAYLOAD,2023-03-13 11:43:32,15.08860373,0.0002169,53.2178,72.2013,196.6827,163.4094,0.00056544,8.727e-05,0.0,0 STARLINK-3847,1 52333U 22045C   23072.48856990  .00008727  00000-0  56544-3 0  9993,2 52333  53.2178  72.2013 0002169 196.6827 163.4094 15.08860373 50740,6917.818,95.436,541.184,538.183,0.0
